IRIDIUM 136             
1 42962U 17061H   23304.86664650  .00000536  00000+0  18438-3 0  9991
2 42962  86.3969  66.1522 0001871  88.3365 271.8045 14.34221388317338
